[{"OBJECT_NAME":"STARLINK-5212","OBJECT_ID":"2022-136AA","EPOCH":"2026-03-09T23:33:17.550432","MEAN_MOTION":15.08852574,"ECCENTRICITY":0.00012246,"INCLINATION":53.2192,"RA_OF_ASC_NODE":337.4271,"ARG_OF_PERICENTER":92.2353,"MEAN_ANOMALY":267.878,"EPHEMERIS_TYPE":0,"CLASSIFICATION_TYPE":"U","NORAD_CAT_ID":54075,"ELEMENT_SET_NO":999,"REV_AT_EPOCH":18696,"BSTAR":-6.0218827e-5,"MEAN_MOTION_DOT":-1.246e-5,"MEAN_MOTION_DDOT":0},{"OBJECT_NAME":"JILIN-01 KUANFU 02B 4","OBJECT_ID":"2024-169D","EPOCH":"2026-03-09T23:04:43.463424","MEAN_MOTION":15.0922271,"ECCENTRICITY":0.00080501,"INCLINATION":97.5522,"RA_OF_ASC_NODE":159.355,"ARG_OF_PERICENTER":260.1533,"MEAN_ANOMALY":99.8787,"EPHEMERIS_TYPE":0,"CLASSIFICATION_TYPE":"U","NORAD_CAT_ID":61192,"ELEMENT_SET_NO":999,"REV_AT_EPOCH":8086,"BSTAR":0.00035789888,"MEAN_MOTION_DOT":5.634e-5,"MEAN_MOTION_DDOT":0}]
